CCSDS_OMM_VERS = 2.0
CREATION_DATE  = 
ORIGINATOR     = 

OBJECT_NAME    = CZ-2C R/B
OBJECT_ID      = 2022-132E
CENTER_NAME    = EARTH
REF_FRAME      = TEME
TIME_SYSTEM    = UTC
MEAN_ELEMENT_THEORY = SGP/SGP4

EPOCH          = 2025-12-08T22:30:12.964320
MEAN_MOTION    = 15.54457630
ECCENTRICITY   = .00234864
INCLINATION    = 97.2947
RA_OF_ASC_NODE = 339.0640
ARG_OF_PERICENTER = 69.5478
MEAN_ANOMALY   = 290.8295

EPHEMERIS_TYPE = 0
CLASSIFICATION_TYPE = U
NORAD_CAT_ID   = 54039
ELEMENT_SET_NO = 999
REV_AT_EPOCH   = 17624
BSTAR          = .58652251E-3
MEAN_MOTION_DOT = .39045E-3
MEAN_MOTION_DDOT = 0

CCSDS_OMM_VERS = 2.0
CREATION_DATE  = 
ORIGINATOR     = 

OBJECT_NAME    = GSLV R/B
OBJECT_ID      = 2022-138AN
CENTER_NAME    = EARTH
REF_FRAME      = TEME
TIME_SYSTEM    = UTC
MEAN_ELEMENT_THEORY = SGP/SGP4

EPOCH          = 2025-12-08T20:13:26.915232
MEAN_MOTION    = 14.96101764
ECCENTRICITY   = .0023862
INCLINATION    = 87.3826
RA_OF_ASC_NODE = 196.7793
ARG_OF_PERICENTER = 118.4087
MEAN_ANOMALY   = 241.9553

EPHEMERIS_TYPE = 0
CLASSIFICATION_TYPE = U
NORAD_CAT_ID   = 54149
ELEMENT_SET_NO = 999
REV_AT_EPOCH   = 17034
BSTAR          = .35830839E-3
MEAN_MOTION_DOT = .4078E-4
MEAN_MOTION_DDOT = 0

CCSDS_OMM_VERS = 2.0
CREATION_DATE  = 
ORIGINATOR     = 

OBJECT_NAME    = XRISM
OBJECT_ID      = 2023-137A
CENTER_NAME    = EARTH
REF_FRAME      = TEME
TIME_SYSTEM    = UTC
MEAN_ELEMENT_THEORY = SGP/SGP4

EPOCH          = 2025-12-08T20:51:11.161152
MEAN_MOTION    = 15.10278587
ECCENTRICITY   = .00076869
INCLINATION    = 31.0004
RA_OF_ASC_NODE = 150.5348
ARG_OF_PERICENTER = 206.2287
MEAN_ANOMALY   = 153.7962

EPHEMERIS_TYPE = 0
CLASSIFICATION_TYPE = U
NORAD_CAT_ID   = 57800
ELEMENT_SET_NO = 999
REV_AT_EPOCH   = 12404
BSTAR          = .36863699E-3
MEAN_MOTION_DOT = .6285E-4
MEAN_MOTION_DDOT = 0

CCSDS_OMM_VERS = 2.0
CREATION_DATE  = 
ORIGINATOR     = 

OBJECT_NAME    = ACS3
OBJECT_ID      = 2024-077B
CENTER_NAME    = EARTH
REF_FRAME      = TEME
TIME_SYSTEM    = UTC
MEAN_ELEMENT_THEORY = SGP/SGP4

EPOCH          = 2025-12-08T20:29:32.835264
MEAN_MOTION    = 13.85213316
ECCENTRICITY   = .00779142
INCLINATION    = 97.2718
RA_OF_ASC_NODE = 299.3276
ARG_OF_PERICENTER = 347.2520
MEAN_ANOMALY   = 12.6669

EPHEMERIS_TYPE = 0
CLASSIFICATION_TYPE = U
NORAD_CAT_ID   = 59588
ELEMENT_SET_NO = 999
REV_AT_EPOCH   = 8160
BSTAR          = .34988307E-1
MEAN_MOTION_DOT = .40832E-3
MEAN_MOTION_DDOT = 0

CCSDS_OMM_VERS = 2.0
CREATION_DATE  = 
ORIGINATOR     = 

OBJECT_NAME    = SZ-21 MODULE
OBJECT_ID      = 2025-246C
CENTER_NAME    = EARTH
REF_FRAME      = TEME
TIME_SYSTEM    = UTC
MEAN_ELEMENT_THEORY = SGP/SGP4

EPOCH          = 2025-12-08T12:17:19.006656
MEAN_MOTION    = 15.62178331
ECCENTRICITY   = .00062383
INCLINATION    = 41.4773
RA_OF_ASC_NODE = 41.8306
ARG_OF_PERICENTER = 236.9164
MEAN_ANOMALY   = 123.1077

EPHEMERIS_TYPE = 0
CLASSIFICATION_TYPE = U
NORAD_CAT_ID   = 66515
ELEMENT_SET_NO = 999
REV_AT_EPOCH   = 378
BSTAR          = .33876447E-3
MEAN_MOTION_DOT = .30446E-3
MEAN_MOTION_DDOT = 0

